{
  "norad_id": 60318,
  "name": "STARLINK-32190",
  "history": [
    {
      "epoch": "2026-04-16T07:44:02.164128Z",
      "apogee_km": 476.0352228614529,
      "perigee_km": 474.43153419287773,
      "latitude_deg": -2.076330553769992e-05,
      "longitude_deg": 161.66264643572157,
      "height_km": 475.9778416254971,
      "semi_major_axis_km": 6853.3703785271655,
      "eccentricity": 0.000117,
      "inclination_deg": 53.1597,
      "raan_deg": 122.1433,
      "arg_perigee_deg": 78.9454,
      "mean_anomaly_deg": 281.1678,
      "mean_motion_rev_day": 15.30193868
    },
    {
      "epoch": "2026-04-17T11:56:59.609760Z",
      "apogee_km": 476.0665631087213,
      "perigee_km": 474.38598136710243,
      "latitude_deg": 4.874190681797035e-05,
      "longitude_deg": 91.80405509398825,
      "height_km": 475.9579376294371,
      "semi_major_axis_km": 6853.363272237912,
      "eccentricity": 0.00012261,
      "inclination_deg": 53.1605,
      "raan_deg": 116.6828,
      "arg_perigee_deg": 78.5679,
      "mean_anomaly_deg": 281.546,
      "mean_motion_rev_day": 15.30196248
    },
    {
      "epoch": "2026-04-18T17:44:00.076128Z",
      "apogee_km": 476.0766044182583,
      "perigee_km": 474.370117688356,
      "latitude_deg": -3.919082547167637e-05,
      "longitude_deg": -1.9350164009727768,
      "height_km": 475.9839882011754,
      "semi_major_axis_km": 6853.360361053306,
      "eccentricity": 0.0001245,
      "inclination_deg": 53.1602,
      "raan_deg": 110.9189,
      "arg_perigee_deg": 80.7241,
      "mean_anomaly_deg": 279.39,
      "mean_motion_rev_day": 15.30197223
    },
    {
      "epoch": "2026-04-19T10:58:35.518656Z",
      "apogee_km": 476.06114347897346,
      "perigee_km": 474.4248304732837,
      "latitude_deg": -3.923378040005514e-05,
      "longitude_deg": 95.3709536124078,
      "height_km": 476.1591775737436,
      "semi_major_axis_km": 6853.379986976129,
      "eccentricity": 0.00011938,
      "inclination_deg": 53.16,
      "raan_deg": 107.5807,
      "arg_perigee_deg": 91.2613,
      "mean_anomaly_deg": 268.8524,
      "mean_motion_rev_day": 15.3019065
    },
    {
      "epoch": "2026-04-20T05:47:14.083008Z",
      "apogee_km": 476.0580748058437,
      "perigee_km": 474.4393051058769,
      "latitude_deg": -1.0403735869647906e-05,
      "longitude_deg": 168.7950605718057,
      "height_km": 476.3413045024447,
      "semi_major_axis_km": 6853.3856899558605,
      "eccentricity": 0.0001181,
      "inclination_deg": 53.1595,
      "raan_deg": 103.938,
      "arg_perigee_deg": 103.8996,
      "mean_anomaly_deg": 256.2136,
      "mean_motion_rev_day": 15.3018874
    },
    {
      "epoch": "2026-04-21T16:16:24.096288Z",
      "apogee_km": 476.0943499705945,
      "perigee_km": 474.3974523642664,
      "latitude_deg": 2.4038314393005383e-05,
      "longitude_deg": 3.4140663704621166,
      "height_km": 476.28274586515977,
      "semi_major_axis_km": 6853.382901167431,
      "eccentricity": 0.0001238,
      "inclination_deg": 53.1596,
      "raan_deg": 97.265,
      "arg_perigee_deg": 99.4125,
      "mean_anomaly_deg": 260.7016,
      "mean_motion_rev_day": 15.30189674
    },
    {
      "epoch": "2026-04-22T07:56:55.684320Z",
      "apogee_km": 475.50611923335236,
      "perigee_km": 474.800915639109,
      "latitude_deg": 7.933224530281181e-06,
      "longitude_deg": 124.604268431925,
      "height_km": 475.72121787371793,
      "semi_major_axis_km": 6853.29051743623,
      "eccentricity": 5.145e-05,
      "inclination_deg": 53.1601,
      "raan_deg": 94.2306,
      "arg_perigee_deg": 340.4302,
      "mean_anomaly_deg": 19.6679,
      "mean_motion_rev_day": 15.30220615
    },
    {
      "epoch": "2026-04-23T07:27:43.817184Z",
      "apogee_km": 476.0069202725499,
      "perigee_km": 474.3427990867822,
      "latitude_deg": 3.701491605853518e-05,
      "longitude_deg": 126.38767451831107,
      "height_km": 475.9230504046597,
      "semi_major_axis_km": 6853.311859679666,
      "eccentricity": 0.00012141,
      "inclination_deg": 53.1607,
      "raan_deg": 89.6802,
      "arg_perigee_deg": 79.6096,
      "mean_anomaly_deg": 280.5042,
      "mean_motion_rev_day": 15.30213467
    },
    {
      "epoch": "2026-04-24T08:32:35.426976Z",
      "apogee_km": 476.07763010247163,
      "perigee_km": 474.4163698208813,
      "latitude_deg": 9.011072666425546e-06,
      "longitude_deg": 104.28987112894019,
      "height_km": 476.2305867218187,
      "semi_major_axis_km": 6853.383999961677,
      "eccentricity": 0.0001212,
      "inclination_deg": 53.1601,
      "raan_deg": 84.8275,
      "arg_perigee_deg": 95.9026,
      "mean_anomaly_deg": 264.2113,
      "mean_motion_rev_day": 15.30189306
    },
    {
      "epoch": "2026-04-25T20:35:48.607008Z",
      "apogee_km": 476.0075928353963,
      "perigee_km": 474.4655837780283,
      "latitude_deg": 3.876150726317827e-05,
      "longitude_deg": -84.97319538534964,
      "height_km": 476.10291330086227,
      "semi_major_axis_km": 6853.373588306712,
      "eccentricity": 0.0001125,
      "inclination_deg": 53.1604,
      "raan_deg": 77.85,
      "arg_perigee_deg": 87.6225,
      "mean_anomaly_deg": 272.4905,
      "mean_motion_rev_day": 15.30192793
    },
    {
      "epoch": "2026-04-26T21:40:39.855648Z",
      "apogee_km": 476.125541605491,
      "perigee_km": 474.33050823816393,
      "latitude_deg": -1.3289763069730878e-05,
      "longitude_deg": -107.07370573250716,
      "height_km": 475.8637015528728,
      "semi_major_axis_km": 6853.365024921827,
      "eccentricity": 0.00013096,
      "inclination_deg": 53.1606,
      "raan_deg": 72.9931,
      "arg_perigee_deg": 72.9944,
      "mean_anomaly_deg": 287.12,
      "mean_motion_rev_day": 15.30195661
    },
    {
      "epoch": "2026-04-27T21:11:28.021344Z",
      "apogee_km": 476.4948466455162,
      "perigee_km": 474.12218380814465,
      "latitude_deg": 4.1727129152088095e-05,
      "longitude_deg": -105.28861454128642,
      "height_km": 476.2995119168436,
      "semi_major_axis_km": 6853.44551522683,
      "eccentricity": 0.0001731,
      "inclination_deg": 53.1607,
      "raan_deg": 68.4445,
      "arg_perigee_deg": 94.5207,
      "mean_anomaly_deg": 265.5992,
      "mean_motion_rev_day": 15.30168704
    },
    {
      "epoch": "2026-04-28T20:42:15.883776Z",
      "apogee_km": 476.1026322540447,
      "perigee_km": 474.36050596377663,
      "latitude_deg": -1.8141330538910043e-05,
      "longitude_deg": -103.5037419544483,
      "height_km": 476.09135852313653,
      "semi_major_axis_km": 6853.36856910891,
      "eccentricity": 0.0001271,
      "inclination_deg": 53.161,
      "raan_deg": 63.8945,
      "arg_perigee_deg": 87.4737,
      "mean_anomaly_deg": 272.6409,
      "mean_motion_rev_day": 15.30194474
    },
    {
      "epoch": "2026-04-29T06:06:34.769376Z",
      "apogee_km": 476.40180310141295,
      "perigee_km": 474.04561768917847,
      "latitude_deg": 1.6877787646385222e-05,
      "longitude_deg": 113.21073456937478,
      "height_km": 476.60096019906626,
      "semi_major_axis_km": 6853.360710395295,
      "eccentricity": 0.0001719,
      "inclination_deg": 53.1611,
      "raan_deg": 62.0739,
      "arg_perigee_deg": 114.0167,
      "mean_anomaly_deg": 246.1014,
      "mean_motion_rev_day": 15.30197106
    },
    {
      "epoch": "2026-04-30T05:37:22.759680Z",
      "apogee_km": 476.0852584558661,
      "perigee_km": 474.36780555474434,
      "latitude_deg": -6.343567382129671e-06,
      "longitude_deg": 114.99449957325535,
      "height_km": 475.94479715853305,
      "semi_major_axis_km": 6853.3635320053045,
      "eccentricity": 0.0001253,
      "inclination_deg": 53.161,
      "raan_deg": 57.5233,
      "arg_perigee_deg": 77.9016,
      "mean_anomaly_deg": 282.2125,
      "mean_motion_rev_day": 15.30196161
    },
    {
      "epoch": "2026-05-02T01:30:52.778304Z",
      "apogee_km": 476.2846460856208,
      "perigee_km": 474.24370321581046,
      "latitude_deg": 3.968321346228671e-06,
      "longitude_deg": 166.32126090233464,
      "height_km": 476.23460538912957,
      "semi_major_axis_km": 6853.401174650716,
      "eccentricity": 0.0001489,
      "inclination_deg": 53.1617,
      "raan_deg": 49.0277,
      "arg_perigee_deg": 94.0729,
      "mean_anomaly_deg": 266.0442,
      "mean_motion_rev_day": 15.30183554
    },
    {
      "epoch": "2026-05-03T18:16:15.525120Z",
      "apogee_km": 475.8997717602715,
      "perigee_km": 474.61818671215497,
      "latitude_deg": 1.55660019668943e-05,
      "longitude_deg": -94.58521576497638,
      "height_km": 476.41728626630714,
      "semi_major_axis_km": 6853.395979236213,
      "eccentricity": 9.35e-05,
      "inclination_deg": 53.1636,
      "raan_deg": 41.1398,
      "arg_perigee_deg": 113.8696,
      "mean_anomaly_deg": 246.2403,
      "mean_motion_rev_day": 15.30185294
    },
    {
      "epoch": "2026-05-04T17:47:03.601824Z",
      "apogee_km": 476.2186258816746,
      "perigee_km": 474.243485208066,
      "latitude_deg": 2.4466368042628137e-06,
      "longitude_deg": -92.80140766604964,
      "height_km": 476.315242124309,
      "semi_major_axis_km": 6853.36805554487,
      "eccentricity": 0.0001441,
      "inclination_deg": 53.1625,
      "raan_deg": 36.5896,
      "arg_perigee_deg": 100.8589,
      "mean_anomaly_deg": 259.2574,
      "mean_motion_rev_day": 15.30194646
    },
    {
      "epoch": "2026-05-05T11:01:38.059392Z",
      "apogee_km": 476.07958466403306,
      "perigee_km": 474.364874184831,
      "latitude_deg": 4.580108543619697e-05,
      "longitude_deg": 4.509307795004153,
      "height_km": 476.20421663803677,
      "semi_major_axis_km": 6853.359229424432,
      "eccentricity": 0.0001251,
      "inclination_deg": 53.1616,
      "raan_deg": 33.252,
      "arg_perigee_deg": 95.6035,
      "mean_anomaly_deg": 264.5109,
      "mean_motion_rev_day": 15.30197602
    }
  ]
}